{"type": "FeatureCollection", "features": [ {"type": "Feature", "properties": {"norad_id": 35890, "name": "COSMOS 2251 DEB", "group": "cosmos-2251-debris", "lat": -47.74759396124811, "lon": -152.75499115064, "alt_km": 677.6089856880044, "timestamp": "2025-12-21T14:40:48.315634+00:00", "meta": {"OBJECT_NAME": "COSMOS 2251 DEB", "OBJECT_ID": "1993-036AUD", "EPOCH": "2025-12-16T22:53:46.078656", "MEAN_MOTION": 14.57543512, "ECCENTRICITY": 0.00539437, "INCLINATION": 73.9365, "RA_OF_ASC_NODE": 234.6414, "ARG_OF_PERICENTER": 358.5125, "MEAN_ANOMALY": 1.5869, "EPHEMERIS_TYPE": 0, "CLASSIFICATION_TYPE": "U", "NORAD_CAT_ID": 35890, "ELEMENT_SET_NO": 999, "REV_AT_EPOCH": 65212, "BSTAR": 0.0012168345, "MEAN_MOTION_DOT": 5.621e-05, "MEAN_MOTION_DDOT": 0}, "tle": {"line1": "1 35890U 93036AUD 25350.95400554  .00005621  00000+0  12168-2 0  9996", "line2": "2 35890  73.9365 234.6414 0053943 358.5125   1.5869 14.57543512652129"}}, "geometry": {"type": "Point", "coordinates": [-152.75499115064, -47.74759396124811]}}, {"type": "Feature", "properties": {"norad_id": 35891, "name": "COSMOS 2251 DEB", "group": "cosmos-2251-debris", "lat": 60.243045820717796, "lon": -135.31732871936666, "alt_km": 456.8013417859602, "timestamp": "2025-12-21T14:40:48.315644+00:00", "meta": {"OBJECT_NAME": "COSMOS 2251 DEB", "OBJECT_ID": "1993-036AUE", "EPOCH": "2025-12-19T23:02:38.567040", "MEAN_MOTION": 15.33900235, "ECCENTRICITY": 0.0042412, "INCLINATION": 73.9897, "RA_OF_ASC_NODE": 78.3766, "ARG_OF_PERICENTER": 207.7893, "MEAN_ANOMALY": 152.1046, "EPHEMERIS_TYPE": 0, "CLASSIFICATION_TYPE": "U", "NORAD_CAT_ID": 35891, "ELEMENT_SET_NO": 999, "REV_AT_EPOCH": 67331, "BSTAR": 0.0008769, "MEAN_MOTION_DOT": 0.00029674, "MEAN_MOTION_DDOT": 0}, "tle": {"line1": "1 35891U 93036AUE 25353.96016860  .00029674  00000+0  87690-3 0  9991", "line2": "2 35891  73.9897  78.3766 0042412 207.7893 152.1046 15.33900235673317"}}, "geometry": {"type": "Point", "coordinates": [-135.31732871936666, 60.243045820717796]}}, {"type": "Feature", "properties": {"norad_id": 35895, "name": "COSMOS 2251 DEB", "group": "cosmos-2251-debris", "lat": 2.3668982916208567, "lon": 151.59807471784933, "alt_km": 935.4362055977563, "timestamp": "2025-12-21T14:40:48.315654+00:00", "meta": {"OBJECT_NAME": "COSMOS 2251 DEB", "OBJECT_ID": "1993-036AUJ", "EPOCH": "2025-12-20T05:18:32.719392", "MEAN_MOTION": 14.01557935, "ECCENTRICITY": 0.0199682, "INCLINATION": 74.0503, "RA_OF_ASC_NODE": 334.6863, "ARG_OF_PERICENTER": 71.097, "MEAN_ANOMALY": 291.1695, "EPHEMERIS_TYPE": 0, "CLASSIFICATION_TYPE": "U", "NORAD_CAT_ID": 35895, "ELEMENT_SET_NO": 999, "REV_AT_EPOCH": 59117, "BSTAR": 0.0011304, "MEAN_MOTION_DOT": 2.013e-05, "MEAN_MOTION_DDOT": 0}, "tle": {"line1": "1 35895U 93036AUJ 25354.22121203  .00002013  00000+0  11304-2 0  9999", "line2": "2 35895  74.0503 334.6863 0199682  71.0970 291.1695 14.01557935591179"}}, "geometry": {"type": "Point", "coordinates": [151.59807471784933, 2.3668982916208567]}}, {"type": "Feature", "properties": {"norad_id": 35898, "name": "COSMOS 2251 DEB", "group": "cosmos-2251-debris", "lat": 41.774139975426976, "lon": 84.66157255717017, "alt_km": 564.8343063095144, "timestamp": "2025-12-21T14:40:48.315664+00:00", "meta": {"OBJECT_NAME": "COSMOS 2251 DEB", "OBJECT_ID": "1993-036AUM", "EPOCH": "2025-12-17T02:32:30.687072", "MEAN_MOTION": 14.94779467, "ECCENTRICITY": 0.00792454, "INCLINATION": 73.9918, "RA_OF_ASC_NODE": 288.6268, "ARG_OF_PERICENTER": 70.8936, "MEAN_ANOMALY": 307.548, "EPHEMERIS_TYPE": 0, "CLASSIFICATION_TYPE": "U", "NORAD_CAT_ID": 35898, "ELEMENT_SET_NO": 999, "REV_AT_EPOCH": 66875, "BSTAR": 0.00065982938, "MEAN_MOTION_DOT": 7.606e-05, "MEAN_MOTION_DDOT": 0}, "tle": {"line1": "1 35898U 93036AUM 25351.10591073  .00007606  00000+0  65983-3 0  9998", "line2": "2 35898  73.9918 288.6268 0079245  70.8936 307.5480 14.94779467668759"}}, "geometry": {"type": "Point", "coordinates": [84.66157255717017, 41.774139975426976]}}, {"type": "Feature", "properties": {"norad_id": 35901, "name": "COSMOS 2251 DEB", "group": "cosmos-2251-debris", "lat": -2.990160849719631, "lon": -174.54298202759813, "alt_km": 550.6920157198065, "timestamp": "2025-12-21T14:40:48.315674+00:00", "meta": {"OBJECT_NAME": "COSMOS 2251 DEB", "OBJECT_ID": "1993-036AUQ", "EPOCH": "2025-12-21T07:33:55.014912", "MEAN_MOTION": 15.07789315, "ECCENTRICITY": 0.00075979, "INCLINATION": 74.0113, "RA_OF_ASC_NODE": 5.2093, "ARG_OF_PERICENTER": 337.8636, "MEAN_ANOMALY": 36.6976, "EPHEMERIS_TYPE": 0, "CLASSIFICATION_TYPE": "U", "NORAD_CAT_ID": 35901, "ELEMENT_SET_NO": 999, "REV_AT_EPOCH": 86256, "BSTAR": 0.0027352178, "MEAN_MOTION_DOT": 0.00042089, "MEAN_MOTION_DDOT": 0}, "tle": {"line1": "1 35901U 93036AUQ 25355.31522008  .00042089  00000+0  27352-2 0  9993", "line2": "2 35901  74.0113   5.2093 0007597 337.8636  36.6976 15.07789315862569"}}, "geometry": {"type": "Point", "coordinates": [-174.54298202759813, -2.990160849719631]}}, {"type": "Feature", "properties": {"norad_id": 35902, "name": "COSMOS 2251 DEB", "group": "cosmos-2251-debris", "lat": 57.19415827108389, "lon": -115.05581398800231, "alt_km": 794.7430615957264, "timestamp": "2025-12-21T14:40:48.315684+00:00", "meta": {"OBJECT_NAME": "COSMOS 2251 DEB", "OBJECT_ID": "1993-036AUR", "EPOCH": "2025-12-19T15:17:09.843072", "MEAN_MOTION": 14.26937143, "ECCENTRICITY": 0.0102282, "INCLINATION": 73.9823, "RA_OF_ASC_NODE": 222.0626, "ARG_OF_PERICENTER": 335.5486, "MEAN_ANOMALY": 24.0827, "EPHEMERIS_TYPE": 0, "CLASSIFICATION_TYPE": "U", "NORAD_CAT_ID": 35902, "ELEMENT_SET_NO": 999, "REV_AT_EPOCH": 61228, "BSTAR": 0.00057286, "MEAN_MOTION_DOT": 1.445e-05, "MEAN_MOTION_DDOT": 0}, "tle": {"line1": "1 35902U 93036AUR 25353.63691948  .00001445  00000+0  57286-3 0  9998", "line2": "2 35902  73.9823 222.0626 0102282 335.5486  24.0827 14.26937143612284"}}, "geometry": {"type": "Point", "coordinates": [-115.05581398800231, 57.19415827108389]}}, {"type": "Feature", "properties": {"norad_id": 35905, "name": "COSMOS 2251 DEB", "group": "cosmos-2251-debris", "lat": 24.849445083028062, "lon": 5.1800239025591175, "alt_km": 596.4981427881885, "timestamp": "2025-12-21T14:40:48.315694+00:00", "meta": {"OBJECT_NAME": "COSMOS 2251 DEB", "OBJECT_ID": "1993-036AUU", "EPOCH": "2025-12-19T20:20:40.701984", "MEAN_MOTION": 14.99109626, "ECCENTRICITY": 0.00907234, "INCLINATION": 74.0303, "RA_OF_ASC_NODE": 196.3814, "ARG_OF_PERICENTER": 274.7905, "MEAN_ANOMALY": 84.2926, "EPHEMERIS_TYPE": 0, "CLASSIFICATION_TYPE": "U", "NORAD_CAT_ID": 35905, "ELEMENT_SET_NO": 999, "REV_AT_EPOCH": 88689, "BSTAR": 0.00038534717, "MEAN_MOTION_DOT": 5.062e-05, "MEAN_MOTION_DDOT": 0}, "tle": {"line1": "1 35905U 93036AUU 25353.84769331  .00005062  00000+0  38535-3 0  9991", "line2": "2 35905  74.0303 196.3814 0090723 274.7905  84.2926 14.99109626886895"}}, "geometry": {"type": "Point", "coordinates": [5.1800239025591175, 24.849445083028062]}}, {"type": "Feature", "properties": {"norad_id": 35959, "name": "COSMOS 2251 DEB", "group": "cosmos-2251-debris", "lat": 13.94068773343169, "lon": -60.101847470274144, "alt_km": 762.8650517686156, "timestamp": "2025-12-21T14:40:48.315703+00:00", "meta": {"OBJECT_NAME": "COSMOS 2251 DEB", "OBJECT_ID": "1993-036AUZ", "EPOCH": "2025-12-21T02:53:38.076576", "MEAN_MOTION": 14.34141289, "ECCENTRICITY": 0.00219152, "INCLINATION": 74.0332, "RA_OF_ASC_NODE": 296.7214, "ARG_OF_PERICENTER": 14.8997, "MEAN_ANOMALY": 345.2796, "EPHEMERIS_TYPE": 0, "CLASSIFICATION_TYPE": "U", "NORAD_CAT_ID": 35959, "ELEMENT_SET_NO": 999, "REV_AT_EPOCH": 85048, "BSTAR": 8.7522177e-05, "MEAN_MOTION_DOT": 2.2e-06, "MEAN_MOTION_DDOT": 0}, "tle": {"line1": "1 35959U 93036AUZ 25355.12057959  .00000220  00000+0  87522-4 0  9991", "line2": "2 35959  74.0332 296.7214 0021915  14.8997 345.2796 14.34141289850487"}}, "geometry": {"type": "Point", "coordinates": [-60.101847470274144, 13.94068773343169]}}, {"type": "Feature", "properties": {"norad_id": 35961, "name": "COSMOS 2251 DEB", "group": "cosmos-2251-debris", "lat": 65.28931254048562, "lon": -30.226117622125884, "alt_km": 731.9355956184372, "timestamp": "2025-12-21T14:40:48.315713+00:00", "meta": {"OBJECT_NAME": "COSMOS 2251 DEB", "OBJECT_ID": "1993-036AVB", "EPOCH": "2025-12-18T21:15:12.372768", "MEAN_MOTION": 14.05418101, "ECCENTRICITY": 0.01915239, "INCLINATION": 73.9239, "RA_OF_ASC_NODE": 193.3704, "ARG_OF_PERICENTER": 125.5075, "MEAN_ANOMALY": 236.4097, "EPHEMERIS_TYPE": 0, "CLASSIFICATION_TYPE": "U", "NORAD_CAT_ID": 35961, "ELEMENT_SET_NO": 999, "REV_AT_EPOCH": 62768, "BSTAR": 0.0011788636, "MEAN_MOTION_DOT": 2.232e-05, "MEAN_MOTION_DDOT": 0}, "tle": {"line1": "1 35961U 93036AVB 25352.88555987  .00002232  00000+0  11789-2 0  9993", "line2": "2 35961  73.9239 193.3704 0191523 125.5075 236.4097 14.05418101627687"}}, "geometry": {"type": "Point", "coordinates": [-30.226117622125884, 65.28931254048562]}}, {"type": "Feature", "properties": {"norad_id": 35979, "name": "COSMOS 2251 DEB", "group": "cosmos-2251-debris", "lat": 46.69365142068955, "lon": -121.26025564526654, "alt_km": 619.4656750188487, "timestamp": "2025-12-21T14:40:48.315723+00:00", "meta": {"OBJECT_NAME": "COSMOS 2251 DEB", "OBJECT_ID": "1993-036AVV", "EPOCH": "2025-12-19T21:49:20.667936", "MEAN_MOTION": 14.74720129, "ECCENTRICITY": 0.0059181, "INCLINATION": 74.0091, "RA_OF_ASC_NODE": 224.3569, "ARG_OF_PERICENTER": 354.8475, "MEAN_ANOMALY": 19.529, "EPHEMERIS_TYPE": 0, "CLASSIFICATION_TYPE": "U", "NORAD_CAT_ID": 35979, "ELEMENT_SET_NO": 999, "REV_AT_EPOCH": 88739, "BSTAR": 0.00048194, "MEAN_MOTION_DOT": 3.28e-05, "MEAN_MOTION_DDOT": 0}, "tle": {"line1": "1 35979U 93036AVV 25353.90926699  .00003280  00000+0  48194-3 0  9993", "line2": "2 35979  74.0091 224.3569 0059181 354.8475  19.5290 14.74720129887395"}}, "geometry": {"type": "Point", "coordinates": [-121.26025564526654, 46.69365142068955]}}]}